OBJECT_NAME,OBJECT_ID,EPOCH,MEAN_MOTION,ECCENTRICITY,INCLINATION,RA_OF_ASC_NODE,ARG_OF_PERICENTER,MEAN_ANOMALY,EPHEMERIS_TYPE,CLASSIFICATION_TYPE,NORAD_CAT_ID,ELEMENT_SET_NO,REV_AT_EPOCH,BSTAR,MEAN_MOTION_DOT,MEAN_MOTION_DDOT
TIBA-1,2019-080A,2026-06-15T06:23:05.388576,1.00269679,.00017689,0.0523,6.5582,89.1391,299.1124,0,U,44800,999,2403,0,.159E-5,0
INMARSAT GX5,2019-080B,2026-06-15T00:43:38.608608,1.00266238,.00020501,0.0337,358.1200,95.5433,191.5978,0,U,44801,999,676,0,.79E-6,0
JCSAT-18 (KACIFIC 1),2019-091A,2026-06-14T23:41:38.859648,1.00267787,.00004792,0.0161,254.2439,28.4628,125.9746,0,U,44868,999,2398,0,-.196E-5,0
ELEKTRO-L 3,2019-095A,2026-06-14T23:44:04.136064,1.00271475,.00009445,0.2504,81.5404,353.1367,260.5757,0,U,44903,999,2368,0,-.91E-6,0
SHIJIAN-20 (SJ-20),2019-097A,2026-06-15T00:35:38.686848,1.00277455,.0013885,4.9134,75.0883,55.0590,186.9701,0,U,44910,999,2367,0,.136E-5,0
TJS-5,2020-002A,2026-06-15T00:52:38.626752,1.00269708,.0007332,0.0173,300.8197,105.7089,337.4655,0,U,44978,999,2368,0,-.337E-5,0
GSAT-30,2020-005A,2026-06-14T23:46:03.945216,1.00271260,.00033319,0.0682,97.8238,346.5800,258.3819,0,U,45026,999,2348,0,-.16E-5,0
EUTELSAT KONNECT,2020-005B,2026-06-15T00:43:38.608608,1.00271655,.00015245,0.0725,97.8075,122.8326,60.8276,0,U,45027,999,2431,0,.55E-6,0
JCSAT-17,2020-013A,2026-06-15T06:51:47.636064,1.00270690,.00023234,5.3923,356.8546,84.8696,60.8172,0,U,45245,999,2321,0,-.313E-5,0
GEO-KOMPSAT-2B,2020-013B,2026-06-15T06:49:32.851200,1.00271618,.00007851,0.0059,337.8509,292.3053,224.0698,0,U,45246,999,2326,0,-.34E-5,0
BEIDOU-3 G2,2020-017A,2026-06-14T23:45:11.528928,1.00272224,.00020461,2.8588,47.3035,32.2453,260.1067,0,U,45344,999,2323,0,-.138E-5,0
AEHF-6 (USA 298),2020-022B,2026-06-15T06:52:17.588352,1.00271947,.00432031,2.5525,301.1311,17.0041,186.2872,0,U,45465,999,2299,0,-.292E-5,0
BEIDOU-3 G3,2020-040A,2026-06-15T06:44:33.330048,1.00267466,.00024126,2.4415,67.4390,335.5072,72.2904,0,U,45807,999,2205,0,-.351E-5,0
APSTAR-6D,2020-045A,2026-06-14T17:09:58.191840,1.00270603,.00020997,0.0526,103.4417,344.7575,206.3375,0,U,45863,999,2183,0,-.311E-5,0
KOREASAT 116,2020-048A,2026-06-15T06:46:10.675200,1.00268804,.00006879,0.0110,21.3543,67.2063,32.7584,0,U,45920,999,2162,0,-.358E-5,0
EXPRESS 103,2020-053A,2026-06-15T06:40:26.225184,1.00269294,.00003047,0.0125,288.8406,56.6894,114.6388,0,U,45985,999,2163,0,-.276E-5,0
EXPRESS 80,2020-053B,2026-06-14T01:10:38.496288,1.00274018,.00014838,0.0221,298.2331,231.0181,190.7564,0,U,45986,999,2160,0,-.127E-5,0
BSAT-4B,2020-056A,2026-06-13T11:57:51.918912,1.00268721,.00037461,0.0192,98.5475,17.2668,75.2961,0,U,46112,999,2135,0,0,0
MEV-2,2020-056B,2026-06-15T01:04:47.035776,1.00269697,.00003833,0.0110,323.4081,227.1731,87.9371,0,U,46113,999,8053,0,-.7E-7,0
GALAXY 30 (G-30),2020-056C,2026-06-15T05:37:19.957728,1.00270701,.00020663,0.0172,10.4729,74.4691,137.9090,0,U,46114,999,2127,0,.41E-6,0
GAOFEN-13 01,2020-071A,2026-06-15T06:46:33.139200,1.00271448,.00413974,0.5166,84.8702,123.7240,274.8322,0,U,46610,999,2090,0,-.359E-5,0
TIANTONG-1 2,2020-082A,2026-06-15T06:48:40.434912,1.00270201,.00009319,0.7930,327.2397,100.3774,63.0626,0,U,46916,999,2063,0,-.352E-5,0
LUCAS (JDRS-1),2020-089A,2026-06-15T00:32:18.097152,1.00270815,.00020357,0.0176,328.9716,103.8765,289.3450,0,U,47202,999,2039,0,-.231E-5,0
SXM-7,2020-096A,2026-06-14T22:58:09.309216,1.00271395,.00036508,0.0312,98.3690,27.4675,36.8000,0,U,47240,999,742,0,-.2E-5,0
CMS-01,2020-099A,2026-06-14T23:46:03.945216,1.00270889,.0003791,0.0930,95.5624,180.6595,66.5692,0,U,47256,999,2017,0,-.16E-5,0
TURKSAT 5A,2021-001A,2026-06-15T04:39:12.522816,1.00268726,.00002275,0.0138,46.3894,233.1881,84.6401,0,U,47306,999,1994,0,.158E-5,0
TIANTONG-1 3,2021-003A,2026-06-14T23:45:33.992928,1.00270796,.00030439,1.7586,339.1468,111.0045,251.0662,0,U,47321,999,1993,0,-.149E-5,0
TJS-6,2021-010A,2026-06-15T07:04:41.538144,1.00268839,.00029392,0.2565,264.3479,224.5002,59.4072,0,U,47613,999,1978,0,.46E-6,0
SBIRS GEO-5 (USA 315),2021-042A,2026-06-15T02:54:21.585888,1.00270886,.0001238,5.1062,329.1133,122.1923,309.5066,0,U,48618,999,1875,0,-.263E-5,0
FENGYUN 4B,2021-047A,2026-06-15T06:42:41.010048,1.00277436,.00059175,0.1485,77.3130,275.0506,116.4613,0,U,48808,999,1855,0,-.327E-5,0
SXM-8,2021-049A,2026-06-15T04:06:05.650272,1.00271322,.00049898,0.0184,12.3896,18.3626,209.0833,0,U,48838,999,1856,0,-.201E-5,0
TIANLIAN 1-05,2021-063A,2026-06-15T06:17:50.890848,1.00271276,.00004973,1.5891,80.7203,320.8606,333.2346,0,U,49011,999,1805,0,.11E-5,0
