TIBA-1                  
1 44800U 19080A   26166.26603459  .00000159  00000+0  00000+0 0  9993
2 44800   0.0523   6.5582 0001768  89.1391 299.1124  1.00269679 24034
INMARSAT GX5            
1 44801U 19080B   26166.03030797  .00000079  00000+0  00000+0 0  9999
2 44801   0.0337 358.1200 0002050  95.5433 191.5978  1.00266238  6764
JCSAT-18 (KACIFIC 1)    
1 44868U 19091A   26165.98725532 -.00000196  00000+0  00000+0 0  9996
2 44868   0.0161 254.2439 0000479  28.4628 125.9746  1.00267787 23983
ELEKTRO-L 3             
1 44903U 19095A   26165.98893676 -.00000091  00000+0  00000+0 0  9999
2 44903   0.2504  81.5404 0000944 353.1367 260.5757  1.00271475 23688
SHIJIAN-20 (SJ-20)      
1 44910U 19097A   26166.02475332  .00000136  00000+0  00000+0 0  9999
2 44910   4.9134  75.0883 0013885  55.0590 186.9701  1.00277455 23672
TJS-5                   
1 44978U 20002A   26166.03655818 -.00000337  00000+0  00000+0 0  9995
2 44978   0.0173 300.8197 0007332 105.7089 337.4655  1.00269708 23683
GSAT-30                 
1 45026U 20005A   26165.99032344 -.00000160  00000+0  00000+0 0  9994
2 45026   0.0682  97.8238 0003331 346.5800 258.3819  1.00271260 23480
EUTELSAT KONNECT        
1 45027U 20005B   26166.03030797  .00000055  00000+0  00000+0 0  9993
2 45027   0.0725  97.8075 0001524 122.8326  60.8276  1.00271655 24312
JCSAT-17                
1 45245U 20013A   26166.28596801 -.00000313  00000+0  00000+0 0  9992
2 45245   5.3923 356.8546 0002323  84.8696  60.8172  1.00270690 23219
GEO-KOMPSAT-2B          
1 45246U 20013B   26166.28440800 -.00000340  00000+0  00000+0 0  9990
2 45246   0.0059 337.8509 0000785 292.3053 224.0698  1.00271618 23266
BEIDOU-3 G2             
1 45344U 20017A   26165.98971677 -.00000138  00000+0  00000+0 0  9995
2 45344   2.8588  47.3035 0002046  32.2453 260.1067  1.00272224 23238
AEHF-6 (USA 298)        
1 45465U 20022B   26166.28631468 -.00000292  00000+0  00000+0 0  9991
2 45465   2.5525 301.1311 0043203  17.0041 186.2872  1.00271947 22997
BEIDOU-3 G3             
1 45807U 20040A   26166.28094132 -.00000351  00000+0  00000+0 0  9998
2 45807   2.4415  67.4390 0002412 335.5072  72.2904  1.00267466 22050
APSTAR-6D               
1 45863U 20045A   26165.71525685 -.00000311  00000+0  00000+0 0  9990
2 45863   0.0526 103.4417 0002099 344.7575 206.3375  1.00270603 21835
KOREASAT 116            
1 45920U 20048A   26166.28206800 -.00000358  00000+0  00000+0 0  9996
2 45920   0.0110  21.3543 0000687  67.2063  32.7584  1.00268804 21626
EXPRESS 103             
1 45985U 20053A   26166.27808131 -.00000276  00000+0  00000+0 0  9996
2 45985   0.0125 288.8406 0000304  56.6894 114.6388  1.00269294 21638
EXPRESS 80              
1 45986U 20053B   26165.04905667 -.00000127  00000+0  00000+0 0  9998
2 45986   0.0221 298.2331 0001483 231.0181 190.7564  1.00274018 21603
BSAT-4B                 
1 46112U 20056A   26164.49851758  .00000000  00000+0  00000+0 0  9991
2 46112   0.0192  98.5475 0003746  17.2668  75.2961  1.00268721 21354
MEV-2                   
1 46113U 20056B   26166.04498884 -.00000007  00000+0  00000+0 0  9990
2 46113   0.0110 323.4081 0000383 227.1731  87.9371  1.00269697 80538
GALAXY 30 (G-30)        
1 46114U 20056C   26166.23425877  .00000041  00000+0  00000+0 0  9991
2 46114   0.0172  10.4729 0002066  74.4691 137.9090  1.00270701 21275
GAOFEN-13 01            
1 46610U 20071A   26166.28232800 -.00000359  00000+0  00000+0 0  9999
2 46610   0.5166  84.8702 0041397 123.7240 274.8322  1.00271448 20905
TIANTONG-1 2            
1 46916U 20082A   26166.28380133 -.00000352  00000+0  00000+0 0  9996
2 46916   0.7930 327.2397 0000931 100.3774  63.0626  1.00270201 20632
LUCAS (JDRS-1)          
1 47202U 20089A   26166.02243168 -.00000231  00000+0  00000+0 0  9996
2 47202   0.0176 328.9716 0002035 103.8765 289.3450  1.00270815 20396
SXM-7                   
1 47240U 20096A   26165.95705219 -.00000200  00000+0  00000+0 0  9993
2 47240   0.0312  98.3690 0003650  27.4675  36.8000  1.00271395  7423
CMS-01                  
1 47256U 20099A   26165.99032344 -.00000160  00000+0  00000+0 0  9994
2 47256   0.0930  95.5624 0003791 180.6595  66.5692  1.00270889 20172
TURKSAT 5A              
1 47306U 21001A   26166.19389494  .00000158  00000+0  00000+0 0  9994
2 47306   0.0138  46.3894 0000227 233.1881  84.6401  1.00268726 19943
TIANTONG-1 3            
1 47321U 21003A   26165.98997677 -.00000149  00000+0  00000+0 0  9998
2 47321   1.7586 339.1468 0003043 111.0045 251.0662  1.00270796 19938
TJS-6                   
1 47613U 21010A   26166.29492521  .00000046  00000+0  00000+0 0  9998
2 47613   0.2565 264.3479 0002939 224.5002  59.4072  1.00268839 19783
SBIRS GEO-5 (USA 315)   
1 48618U 21042A   26166.12108317 -.00000263  00000+0  00000+0 0  9990
2 48618   5.1062 329.1133 0001238 122.1923 309.5066  1.00270886 18751
FENGYUN 4B              
1 48808U 21047A   26166.27964132 -.00000327  00000+0  00000+0 0  9998
2 48808   0.1485  77.3130 0005917 275.0506 116.4613  1.00277436 18557
SXM-8                   
1 48838U 21049A   26166.17089873 -.00000201  00000+0  00000+0 0  9993
2 48838   0.0184  12.3896 0004989  18.3626 209.0833  1.00271322 18564
TIANLIAN 1-05           
1 49011U 21063A   26166.26239457  .00000110  00000+0  00000+0 0  9996
2 49011   1.5891  80.7203 0000497 320.8606 333.2346  1.00271276 18050
